STARLINK-3504           
1 51881U 22022AF  26188.83337963  .00113983  00000+0  35734-2 0  9996
2 51881  53.1600 178.3000 0001881  70.5108  35.5242 15.32194743  5698
STARLINK-3570           
1 51882U 22022AG  26188.02020765  .00000173  00000+0  18341-4 0  9990
2 51882  53.1615 181.1520 0001197 101.2383 258.8752 15.29336512241349
STARLINK-3576           
1 51883U 22022AH  26188.83337963  .00875414  00000+0  26315-1 0  9996
2 51883  53.1645 178.5067 0001302  90.6827 302.0133 15.31201885  5835
STARLINK-3577           
1 51884U 22022AJ  26188.83337963  .00083545  00000+0  32895-2 0  9994
2 51884  53.1593 178.9258 0002251  76.6311  47.2492 15.24911560  5780
STARLINK-3584           
1 51885U 22022AK  26188.83337963  .00086703  00000+0  29711-2 0  9997
2 51885  53.1590 178.4394 0000924  95.6834 358.4673 15.29475654  5737
STARLINK-3565           
1 51886U 22022AL  26188.39001198  .00009622  00000+0  60738-3 0  9997
2 51886  53.1758 181.5040 0002195  55.4067 304.7132 15.09706307241322
STARLINK-3551           
1 51887U 22022AM  26188.75708839  .00001446  00000+0  52384-4 0  9999
2 51887  53.1615 176.7917 0001184 104.1988 255.9147 15.35384940241412
STARLINK-3536           
1 51888U 22022AN  26188.83337963  .00123770  00000+0  41565-2 0  9997
2 51888  53.1597 178.4891 0000955  70.0019 338.8777 15.29929386  5839
STARLINK-3547           
1 51889U 22022AP  26188.83337963  .00049886  00000+0  14794-2 0  9997
2 51889  53.1596 177.1024 0001124  93.3907  46.3892 15.34364893  5736
STARLINK-3549           
1 51891U 22022AR  26188.35732159  .00000111  00000+0  14100-4 0  9994
2 51891  53.1624 178.7209 0001030  95.8112 264.3009 15.35387223241405
STARLINK-3587           
1 51892U 22022AS  26188.83337963  .00048907  00000+0  14042-2 0  9990
2 51892  53.1604 177.1467 0000451  47.5035  49.7288 15.35392003  5782
STARLINK-3579           
1 51893U 22022AT  26188.01657871  .00009314  00000+0  58277-3 0  9992
2 51893  53.2146 183.2458 0002431  51.5999 308.5212 15.10065220241323
STARLINK-3595           
1 51894U 22022AU  26188.40996894 -.00001012  00000+0 -19444-4 0  9990
2 51894  53.1606 179.0813 0001658  88.0704 272.0488 15.33552832241416
STARLINK-3594           
1 51895U 22022AV  26188.01177463  .00004624  00000+0  14793-3 0  9992
2 51895  53.1603 180.9420 0001654 111.2703 248.8477 15.34398624241296
STARLINK-3593           
1 51896U 22022AW  26188.83337963  .00128822  00000+0  40311-2 0  9997
2 51896  53.1593 178.4695 0001338 107.3140 124.5878 15.32179154  5837
STARLINK-3598           
1 51897U 22022AX  26188.46975547  .00000369  00000+0  22068-4 0  9999
2 51897  53.1620 178.1550 0001201  97.5314 262.5825 15.34375342241373
STARLINK-3597           
1 51898U 22022AY  26187.22735304 -.00001646  00000+0 -36311-4 0  9995
2 51898  53.1624 183.9536 0001430  99.4698 260.6467 15.35384072241233
STARLINK-3700           
1 51956U 22025A   26188.34313034  .00000809  00000+0  37859-4 0  9995
2 51956  53.1586 176.9404 0001305  87.5557 272.5594 15.31678827239504
STARLINK-3694           
1 51957U 22025B   26188.73044257 -.00001345  00000+0 -31590-4 0  9991
2 51957  53.1585 198.3544 0001294 107.8534 252.2609 15.31695061239225
STARLINK-3692           
1 51958U 22025C   26187.22453848 -.00001371  00000+0 -32441-4 0  9990
2 51958  53.1582 182.0567 0001111  86.1568 273.9560 15.31688866239335
STARLINK-3704           
1 51959U 22025D   26188.72651870  .00000990  00000+0  43649-4 0  9998
2 51959  53.1575 198.9426 0001154  91.2955 268.8179 15.31698539239216
STARLINK-3691           
1 51960U 22025E   26188.45077010 -.00003696  00000+0 -10737-3 0  9997
2 51960  53.1591 199.4675 0001633 122.5672 237.5488 15.31700807239188
STARLINK-3697           
1 51962U 22025G   26187.40375824 -.00003474  00000+0 -10028-3 0  9994
2 51962  53.1591 191.9600 0001269  85.4191 274.6956 15.31680272239201
STARLINK-3675           
1 51963U 22025H   26188.32913725 -.00001585  00000+0 -39334-4 0  9998
2 51963  53.1591 176.9113 0001230 101.4223 258.6916 15.31696296239501
STARLINK-3690           
1 51964U 22025J   26188.04228557 -.00000114  00000+0  80787-5 0  9995
2 51964  53.1579 188.9739 0000952 108.4970 251.6135 15.31680442239301
STARLINK-3696           
1 51965U 22025K   26187.32760247 -.00002174  00000+0 -58331-4 0  9991
2 51965  53.1600 205.2476 0001477  82.9725 277.1444 15.31692678239002
STARLINK-3699           
1 51966U 22025L   26188.03600103 -.00003398  00000+0 -97791-4 0  9997
2 51966  53.1598 201.7009 0001431 103.1478 256.9684 15.31693054239115
STARLINK-3681           
1 51968U 22025N   26188.03296426 -.00001528  00000+0 -37490-4 0  9991
2 51968  53.1572 189.0197 0000831 116.1118 243.9970 15.31691359239304
STARLINK-3680           
1 51969U 22025P   26188.37320565 -.00002058  00000+0 -54596-4 0  9996
2 51969  53.1586 187.4751 0001444  98.6756 261.4409 15.31688714239348
STARLINK-3677           
1 51970U 22025Q   26188.72187017 -.00000553  00000+0 -60609-5 0  9991
2 51970  53.1608 198.9957 0001179  99.9428 260.1706 15.31695277239219
