OBJECT_NAME,OBJECT_ID,EPOCH,MEAN_MOTION,ECCENTRICITY,INCLINATION,RA_OF_ASC_NODE,ARG_OF_PERICENTER,MEAN_ANOMALY,EPHEMERIS_TYPE,CLASSIFICATION_TYPE,NORAD_CAT_ID,ELEMENT_SET_NO,REV_AT_EPOCH,BSTAR,MEAN_MOTION_DOT,MEAN_MOTION_DDOT
STARLINK-3504,2022-022AF,2026-07-07T20:00:04.000032,15.32194743,.0001881,53.1600,178.3000,70.5108,35.5242,0,U,51881,999,569,.35734E-2,.113983E-2,0
STARLINK-3570,2022-022AG,2026-07-07T00:29:05.940960,15.29336512,.00011973,53.1615,181.1520,101.2383,258.8752,0,U,51882,999,24134,.18340701E-4,.173E-5,0
STARLINK-3576,2022-022AH,2026-07-07T20:00:04.000032,15.31201885,.0001302,53.1645,178.5067,90.6827,302.0133,0,U,51883,999,583,.26315E-1,.875414E-2,0
STARLINK-3577,2022-022AJ,2026-07-07T20:00:04.000032,15.24911560,.0002251,53.1593,178.9258,76.6311,47.2492,0,U,51884,999,578,.32895E-2,.83545E-3,0
STARLINK-3584,2022-022AK,2026-07-07T20:00:04.000032,15.29475654,.0000924,53.1590,178.4394,95.6834,358.4673,0,U,51885,999,573,.29711E-2,.86703E-3,0
STARLINK-3565,2022-022AL,2026-07-07T09:21:37.035072,15.09706307,.00021951,53.1758,181.5040,55.4067,304.7132,0,U,51886,999,24132,.60738487E-3,.9622E-4,0
STARLINK-3551,2022-022AM,2026-07-07T18:10:12.436896,15.35384940,.0001184,53.1615,176.7917,104.1988,255.9147,0,U,51887,999,24141,.52384E-4,.1446E-4,0
STARLINK-3536,2022-022AN,2026-07-07T20:00:04.000032,15.29929386,.0000955,53.1597,178.4891,70.0019,338.8777,0,U,51888,999,583,.41565E-2,.12377E-2,0
STARLINK-3547,2022-022AP,2026-07-07T20:00:04.000032,15.34364893,.0001124,53.1596,177.1024,93.3907,46.3892,0,U,51889,999,573,.14794E-2,.49886E-3,0
STARLINK-3549,2022-022AR,2026-07-07T08:34:32.585376,15.35387223,.00010308,53.1624,178.7209,95.8112,264.3009,0,U,51891,999,24140,.14100044E-4,.111E-5,0
STARLINK-3587,2022-022AS,2026-07-07T20:00:04.000032,15.35392003,.0000451,53.1604,177.1467,47.5035,49.7288,0,U,51892,999,578,.14042E-2,.48907E-3,0
STARLINK-3579,2022-022AT,2026-07-07T00:23:52.400544,15.10065220,.00024316,53.2146,183.2458,51.5999,308.5212,0,U,51893,999,24132,.58277256E-3,.9314E-4,0
STARLINK-3595,2022-022AU,2026-07-07T09:50:21.316416,15.33552832,.00016588,53.1606,179.0813,88.0704,272.0488,0,U,51894,999,24141,-.194438E-4,-.1012E-4,0
STARLINK-3594,2022-022AV,2026-07-07T00:16:57.328032,15.34398624,.00016548,53.1603,180.9420,111.2703,248.8477,0,U,51895,999,24129,.14792945E-3,.4624E-4,0
STARLINK-3593,2022-022AW,2026-07-07T20:00:04.000032,15.32179154,.0001338,53.1593,178.4695,107.3140,124.5878,0,U,51896,999,583,.40311E-2,.128822E-2,0
STARLINK-3598,2022-022AX,2026-07-07T11:16:26.872608,15.34375342,.00012015,53.1620,178.1550,97.5314,262.5825,0,U,51897,999,24137,.22067968E-4,.369E-5,0
STARLINK-3597,2022-022AY,2026-07-06T05:27:23.302656,15.35384072,.00014301,53.1624,183.9536,99.4698,260.6467,0,U,51898,999,24123,-.36311278E-4,-.1646E-4,0
STARLINK-3700,2022-025A,2026-07-07T08:14:06.461376,15.31678827,.00013052,53.1586,176.9404,87.5557,272.5594,0,U,51956,999,23950,.37858739E-4,.809E-5,0
STARLINK-3694,2022-025B,2026-07-07T17:31:50.238048,15.31695061,.0001294,53.1585,198.3544,107.8534,252.2609,0,U,51957,999,23922,-.3159E-4,-.1345E-4,0
STARLINK-3692,2022-025C,2026-07-06T05:23:20.124672,15.31688866,.00011117,53.1582,182.0567,86.1568,273.9560,0,U,51958,999,23933,-.32440847E-4,-.1371E-4,0
STARLINK-3704,2022-025D,2026-07-07T17:26:11.215680,15.31698539,.0001154,53.1575,198.9426,91.2955,268.8179,0,U,51959,999,23921,.43649E-4,.99E-5,0
STARLINK-3691,2022-025E,2026-07-07T10:49:06.536640,15.31700807,.00016335,53.1591,199.4675,122.5672,237.5488,0,U,51960,999,23918,-.10736717E-3,-.3696E-4,0
STARLINK-3697,2022-025G,2026-07-06T09:41:24.711936,15.31680272,.00012696,53.1591,191.9600,85.4191,274.6956,0,U,51962,999,23920,-.10027955E-3,-.3474E-4,0
STARLINK-3675,2022-025H,2026-07-07T07:53:57.458400,15.31696296,.00012302,53.1591,176.9113,101.4223,258.6916,0,U,51963,999,23950,-.39333797E-4,-.1585E-4,0
STARLINK-3690,2022-025J,2026-07-07T01:00:53.473248,15.31680442,.00009522,53.1579,188.9739,108.4970,251.6135,0,U,51964,999,23930,.8078713E-5,-.114E-5,0
STARLINK-3696,2022-025K,2026-07-06T07:51:44.853408,15.31692678,.00014774,53.1600,205.2476,82.9725,277.1444,0,U,51965,999,23900,-.58330795E-4,-.2174E-4,0
STARLINK-3699,2022-025L,2026-07-07T00:51:50.488992,15.31693054,.00014311,53.1598,201.7009,103.1478,256.9684,0,U,51966,999,23911,-.97790569E-4,-.3398E-4,0
STARLINK-3681,2022-025N,2026-07-07T00:47:28.112064,15.31691359,.00008311,53.1572,189.0197,116.1118,243.9970,0,U,51968,999,23930,-.37490097E-4,-.1528E-4,0
STARLINK-3680,2022-025P,2026-07-07T08:57:24.968160,15.31688714,.0001444,53.1586,187.4751,98.6756,261.4409,0,U,51969,999,23934,-.54596402E-4,-.2058E-4,0
STARLINK-3677,2022-025Q,2026-07-07T17:19:29.582688,15.31695277,.0001179,53.1608,198.9957,99.9428,260.1706,0,U,51970,999,23921,-.60609E-5,-.553E-5,0
